start=new Date('2022-10-08T00:00:00.000Z').valueOf();
sats=[{"TLE_LINE2":"2 52340  53.2188  46.9402 0002192  41.4471 318.6687 15.08846301 27186","OBJECT_TYPE":"PAYLOAD","TLE_LINE1":"1 52340U 22045K   22280.50050642  .00001337  00000-0  10205-3 0  9998","MEAN_ANOMALY":"318.6687","RCS_SIZE":"LARGE","MEAN_MOTION":"15.08846301","REF_FRAME":"TEME","LAUNCH_DATE":"2022-04-29","MEAN_ELEMENT_THEORY":"SGP4","OBJECT_NAME":"STARLINK-3818","ARG_OF_PERICENTER":"41.4471","COUNTRY_CODE":"US","FILE":"3595773","REV_AT_EPOCH":"2718","RA_OF_ASC_NODE":"46.9402","TIME_SYSTEM":"UTC","ECCENTRICITY":"0.00021920","PERIOD":"95.437","EPHEMERIS_TYPE":"0","OBJECT_ID":"2022-045K","SEMIMAJOR_AXIS":"6917.861","CENTER_NAME":"EARTH","MEAN_MOTION_DOT":"0.00001337","INCLINATION":"53.2188","NORAD_CAT_ID":"52340","PERIAPSIS":"538.210","ELEMENT_SET_NO":"999","BSTAR":"0.00010205000000","SITE":"AFETR","MEAN_MOTION_DDOT":"0.0000000000000","APOAPSIS":"541.243","CLASSIFICATION_TYPE":"U","DECAY_DATE":null,"EPOCH":"2022-10-07T12:00:43.754688","GP_ID":"214436737"},{"INCLINATION":"53.2178","NORAD_CAT_ID":"52341","PERIAPSIS":"538.106","MEAN_MOTION_DOT":"0.00004642","ELEMENT_SET_NO":"999","BSTAR":"0.00030949000000","SITE":"AFETR","MEAN_MOTION_DDOT":"0.0000000000000","APOAPSIS":"541.335","GP_ID":"214437489","EPOCH":"2022-10-07T19:20:37.904928","CLASSIFICATION_TYPE":"U","DECAY_DATE":null,"PERIOD":"95.437","SEMIMAJOR_AXIS":"6917.855","EPHEMERIS_TYPE":"0","OBJECT_ID":"2022-045L","CENTER_NAME":"EARTH","MEAN_MOTION":"15.08848263","REF_FRAME":"TEME","RCS_SIZE":"LARGE","LAUNCH_DATE":"2022-04-29","COUNTRY_CODE":"US","ARG_OF_PERICENTER":"28.4394","MEAN_ELEMENT_THEORY":"SGP4","OBJECT_NAME":"STARLINK-3843","TIME_SYSTEM":"UTC","ECCENTRICITY":"0.00023340","FILE":"3595773","RA_OF_ASC_NODE":"55.5853","REV_AT_EPOCH":"2710","TLE_LINE2":"2 52341  53.2178  55.5853 0002334  28.4394 331.6725 15.08848263 27108","OBJECT_TYPE":"PAYLOAD","TLE_LINE1":"1 52341U 22045L   22280.80599427  .00004642  00000-0  30949-3 0  9990","MEAN_ANOMALY":"331.6725"},{"CLASSIFICATION_TYPE":"U","DECAY_DATE":null,"EPOCH":"2022-10-07T15:00:54.425088","GP_ID":"214437239","MEAN_MOTION_DDOT":"0.0000000000000","APOAPSIS":"541.182","ELEMENT_SET_NO":"999","BSTAR":"0.00013642000000","SITE":"AFETR","MEAN_MOTION_DOT":"0.00001884","INCLINATION":"53.2184","NORAD_CAT_ID":"52342","PERIAPSIS":"538.280","CENTER_NAME":"EARTH","EPHEMERIS_TYPE":"0","OBJECT_ID":"2022-045M","SEMIMAJOR_AXIS":"6917.866","PERIOD":"95.437","FILE":"3595773","REV_AT_EPOCH":"2721","RA_OF_ASC_NODE":"46.3803","TIME_SYSTEM":"UTC","ECCENTRICITY":"0.00020970","MEAN_ELEMENT_THEORY":"SGP4","OBJECT_NAME":"STARLINK-3850","ARG_OF_PERICENTER":"37.7708","COUNTRY_CODE":"US","LAUNCH_DATE":"2022-04-29","RCS_SIZE":"LARGE","MEAN_MOTION":"15.08844720","REF_FRAME":"TEME","TLE_LINE1":"1 52342U 22045M   22280.62562992  .00001884  00000-0  13642-3 0  9994","MEAN_ANOMALY":"322.3431","OBJECT_TYPE":"PAYLOAD","TLE_LINE2":"2 52342  53.2184  46.3803 0002097  37.7708 322.3431 15.08844720 27214"},{"PERIOD":"95.438","SEMIMAJOR_AXIS":"6917.885","OBJECT_ID":"2022-045N","EPHEMERIS_TYPE":"0","CENTER_NAME":"EARTH","NORAD_CAT_ID":"52343","PERIAPSIS":"538.223","INCLINATION":"53.2187","MEAN_MOTION_DOT":"0.00001741","SITE":"AFETR","ELEMENT_SET_NO":"999","BSTAR":"0.00012745000000","MEAN_MOTION_DDOT":"0.0000000000000","APOAPSIS":"541.278","GP_ID":"214435987","EPOCH":"2022-10-07T20:06:56.814912","DECAY_DATE":null,"CLASSIFICATION_TYPE":"U","TLE_LINE2":"2 52343  53.2187  55.4293 0002208  38.0637 322.0511 15.08838446 27114","OBJECT_TYPE":"PAYLOAD","MEAN_ANOMALY":"322.0511","TLE_LINE1":"1 52343U 22045N   22280.83815758  .00001741  00000-0  12745-3 0  9994","REF_FRAME":"TEME","MEAN_MOTION":"15.08838446","RCS_SIZE":"LARGE","LAUNCH_DATE":"2022-04-29","COUNTRY_CODE":"US","ARG_OF_PERICENTER":"38.0637","OBJECT_NAME":"STARLINK-3849","MEAN_ELEMENT_THEORY":"SGP4","ECCENTRICITY":"0.00022080","TIME_SYSTEM":"UTC","REV_AT_EPOCH":"2711","RA_OF_ASC_NODE":"55.4293","FILE":"3595773"},{"TLE_LINE1":"1 52344U 22045P   22280.75171189  .00000886  00000-0  73751-4 0  9993","MEAN_ANOMALY":"317.5918","OBJECT_TYPE":"PAYLOAD","TLE_LINE2":"2 52344  53.2191  45.8196 0002007  42.5229 317.5918 15.08841269 27239","TIME_SYSTEM":"UTC","ECCENTRICITY":"0.00020070","FILE":"3595773","REV_AT_EPOCH":"2723","RA_OF_ASC_NODE":"45.8196","ARG_OF_PERICENTER":"42.5229","COUNTRY_CODE":"US","MEAN_ELEMENT_THEORY":"SGP4","OBJECT_NAME":"STARLINK-3851","LAUNCH_DATE":"2022-04-29","MEAN_MOTION":"15.08841269","REF_FRAME":"TEME","RCS_SIZE":"LARGE","CENTER_NAME":"EARTH","SEMIMAJOR_AXIS":"6917.877","OBJECT_ID":"2022-045P","EPHEMERIS_TYPE":"0","PERIOD":"95.437","GP_ID":"214436237","EPOCH":"2022-10-07T18:02:27.907296","CLASSIFICATION_TYPE":"U","DECAY_DATE":null,"APOAPSIS":"541.130","MEAN_MOTION_DDOT":"0.0000000000000","ELEMENT_SET_NO":"999","BSTAR":"0.00007375100000","SITE":"AFETR","INCLINATION":"53.2191","NORAD_CAT_ID":"52344","PERIAPSIS":"538.353","MEAN_MOTION_DOT":"0.00000886"},{"APOAPSIS":"540.916","MEAN_MOTION_DDOT":"0.0000000000000","EPOCH":"2022-10-07T16:52:11.639136","GP_ID":"214436989","CLASSIFICATION_TYPE":"U","DECAY_DATE":null,"PERIAPSIS":"538.533","NORAD_CAT_ID":"52345","INCLINATION":"53.2177","MEAN_MOTION_DOT":"0.00002013","SITE":"AFETR","ELEMENT_SET_NO":"999","BSTAR":"0.00014448000000","CENTER_NAME":"EARTH","PERIOD":"95.437","SEMIMAJOR_AXIS":"6917.859","EPHEMERIS_TYPE":"0","OBJECT_ID":"2022-045Q","COUNTRY_CODE":"US","ARG_OF_PERICENTER":"47.5753","OBJECT_NAME":"STARLINK-3852","MEAN_ELEMENT_THEORY":"SGP4","ECCENTRICITY":"0.00017230","TIME_SYSTEM":"UTC","REV_AT_EPOCH":"2721","RA_OF_ASC_NODE":"46.0319","FILE":"3595773","REF_FRAME":"TEME","MEAN_MOTION":"15.08846851","RCS_SIZE":"LARGE","LAUNCH_DATE":"2022-04-29","MEAN_ANOMALY":"312.5385","TLE_LINE1":"1 52345U 22045Q   22280.70291249  .00002013  00000-0  14448-3 0  9990","TLE_LINE2":"2 52345  53.2177  46.0319 0001723  47.5753 312.5385 15.08846851 27218","OBJECT_TYPE":"PAYLOAD"},{"CENTER_NAME":"EARTH","SEMIMAJOR_AXIS":"6917.880","EPHEMERIS_TYPE":"0","OBJECT_ID":"2022-045R","PERIOD":"95.438","EPOCH":"2022-10-07T21:11:51.235296","GP_ID":"214437740","CLASSIFICATION_TYPE":"U","DECAY_DATE":null,"MEAN_MOTION_DDOT":"0.0000000000000","APOAPSIS":"541.101","BSTAR":"0.00003676100000","ELEMENT_SET_NO":"999","SITE":"AFETR","INCLINATION":"53.2179","NORAD_CAT_ID":"52346","PERIAPSIS":"538.389","MEAN_MOTION_DOT":"0.00000297","TLE_LINE1":"1 52346U 22045R   22280.88323189  .00000297  00000-0  36761-4 0  9994","MEAN_ANOMALY":"319.6070","OBJECT_TYPE":"PAYLOAD","TLE_LINE2":"2 52346  53.2179  45.2292 0001960  40.5068 319.6070 15.08840000 27250","TIME_SYSTEM":"UTC","ECCENTRICITY":"0.00019600","FILE":"3595773","REV_AT_EPOCH":"2725","RA_OF_ASC_NODE":"45.2292","ARG_OF_PERICENTER":"40.5068","COUNTRY_CODE":"US","MEAN_ELEMENT_THEORY":"SGP4","OBJECT_NAME":"STARLINK-3812","LAUNCH_DATE":"2022-04-29","MEAN_MOTION":"15.08840000","REF_FRAME":"TEME","RCS_SIZE":"LARGE"},{"SITE":"AFETR","BSTAR":"0.00012201000000","ELEMENT_SET_NO":"999","NORAD_CAT_ID":"52347","PERIAPSIS":"538.362","INCLINATION":"53.2189","MEAN_MOTION_DOT":"0.00001654","GP_ID":"214436488","EPOCH":"2022-10-07T18:16:59.084544","DECAY_DATE":null,"CLASSIFICATION_TYPE":"U","MEAN_MOTION_DDOT":"0.0000000000000","APOAPSIS":"541.139","SEMIMAJOR_AXIS":"6917.885","EPHEMERIS_TYPE":"0","OBJECT_ID":"2022-045S","PERIOD":"95.438","CENTER_NAME":"EARTH","LAUNCH_DATE":"2022-04-29","REF_FRAME":"TEME","MEAN_MOTION":"15.08838357","RCS_SIZE":"LARGE","ECCENTRICITY":"0.00020070","TIME_SYSTEM":"UTC","RA_OF_ASC_NODE":"45.7728","REV_AT_EPOCH":"2723","FILE":"3595773","ARG_OF_PERICENTER":"42.5839","COUNTRY_CODE":"US","OBJECT_NAME":"STARLINK-3826","MEAN_ELEMENT_THEORY":"SGP4","OBJECT_TYPE":"PAYLOAD","TLE_LINE2":"2 52347  53.2189  45.7728 0002007  42.5839 317.5309 15.08838357 27234","MEAN_ANOMALY":"317.5309","TLE_LINE1":"1 52347U 22045S   22280.76179496  .00001654  00000-0  12201-3 0  9992"},{"MEAN_ANOMALY":"326.6989","TLE_LINE1":"1 52348U 22045T   22280.61090946  .00002112  00000-0  15076-3 0  9992","TLE_LINE2":"2 52348  53.2195  46.4670 0001870  33.4121 326.6989 15.08845942 27217","OBJECT_TYPE":"PAYLOAD","ARG_OF_PERICENTER":"33.4121","COUNTRY_CODE":"US","OBJECT_NAME":"STARLINK-3829","MEAN_ELEMENT_THEORY":"SGP4","ECCENTRICITY":"0.00018700","TIME_SYSTEM":"UTC","REV_AT_EPOCH":"2721","RA_OF_ASC_NODE":"46.4670","FILE":"3595773","REF_FRAME":"TEME","MEAN_MOTION":"15.08845942","RCS_SIZE":"LARGE","LAUNCH_DATE":"2022-04-29","CENTER_NAME":"EARTH","PERIOD":"95.437","SEMIMAJOR_AXIS":"6917.862","EPHEMERIS_TYPE":"0","OBJECT_ID":"2022-045T","APOAPSIS":"541.021","MEAN_MOTION_DDOT":"0.0000000000000","EPOCH":"2022-10-07T14:39:42.577344","GP_ID":"214436738","DECAY_DATE":null,"CLASSIFICATION_TYPE":"U","NORAD_CAT_ID":"52348","PERIAPSIS":"538.434","INCLINATION":"53.2195","MEAN_MOTION_DOT":"0.00002112","SITE":"AFETR","BSTAR":"0.00015076000000","ELEMENT_SET_NO":"999"},{"LAUNCH_DATE":"2022-04-29","MEAN_MOTION":"15.08850089","REF_FRAME":"TEME","RCS_SIZE":"LARGE","TIME_SYSTEM":"UTC","ECCENTRICITY":"0.00022780","FILE":"3595773","REV_AT_EPOCH":"2721","RA_OF_ASC_NODE":"46.3991","ARG_OF_PERICENTER":"33.2177","COUNTRY_CODE":"US","MEAN_ELEMENT_THEORY":"SGP4","OBJECT_NAME":"STARLINK-3819","OBJECT_TYPE":"PAYLOAD","TLE_LINE2":"2 52349  53.2142  46.3991 0002278  33.2177 326.8958 15.08850089 27213","TLE_LINE1":"1 52349U 22045U   22280.62195110  .00004911  00000-0  32634-3 0  9991","MEAN_ANOMALY":"326.8958","BSTAR":"0.00032634000000","ELEMENT_SET_NO":"999","SITE":"AFETR","INCLINATION":"53.2142","NORAD_CAT_ID":"52349","PERIAPSIS":"538.139","MEAN_MOTION_DOT":"0.00004911","GP_ID":"214437490","EPOCH":"2022-10-07T14:55:36.575040","CLASSIFICATION_TYPE":"U","DECAY_DATE":null,"APOAPSIS":"541.290","MEAN_MOTION_DDOT":"0.0000000000000","SEMIMAJOR_AXIS":"6917.850","OBJECT_ID":"2022-045U","EPHEMERIS_TYPE":"0","PERIOD":"95.437","CENTER_NAME":"EARTH"}];
